[{"OBJECT_NAME":"STARLINK-4185","OBJECT_ID":"2022-083H","EPOCH":"2026-03-09T12:39:32.085216","MEAN_MOTION":15.08850981,"ECCENTRICITY":0.00014531,"INCLINATION":53.2179,"RA_OF_ASC_NODE":174.8496,"ARG_OF_PERICENTER":82.2429,"MEAN_ANOMALY":277.8728,"EPHEMERIS_TYPE":0,"CLASSIFICATION_TYPE":"U","NORAD_CAT_ID":53139,"ELEMENT_SET_NO":999,"REV_AT_EPOCH":20119,"BSTAR":7.9491771e-5,"MEAN_MOTION_DOT":9.78e-6,"MEAN_MOTION_DDOT":0},{"OBJECT_NAME":"3CAT-4","OBJECT_ID":"2024-128B","EPOCH":"2026-03-09T23:24:16.548192","MEAN_MOTION":15.017951,"ECCENTRICITY":0.00535476,"INCLINATION":61.9919,"RA_OF_ASC_NODE":211.2729,"ARG_OF_PERICENTER":115.9438,"MEAN_ANOMALY":244.7184,"EPHEMERIS_TYPE":0,"CLASSIFICATION_TYPE":"U","NORAD_CAT_ID":60236,"ELEMENT_SET_NO":999,"REV_AT_EPOCH":9120,"BSTAR":0.00028129934,"MEAN_MOTION_DOT":3.584e-5,"MEAN_MOTION_DDOT":0}]
